INTELSAT 9 (IS-9)       
1 26451U 00043A   25129.98879580 -.00000005  00000+0  00000+0 0  9992
2 26451   9.5011  52.8432 0004374   7.4700 229.9400  1.00273727 40094
INTELSAT 10 (IS-10)     
1 26766U 01019A   25130.39455826  .00000003  00000+0  00000+0 0  9992
2 26766   8.1116  63.3596 0004440 337.8116  35.4018  1.00271629 41586
INTELSAT 901 (IS-901)   
1 26824U 01024A   25130.54893213 -.00000191  00000+0  00000+0 0  9995
2 26824   0.2012  93.5825 0004016 345.1432 112.9122  0.98820646 18947
INTELSAT 902 (IS-902)   
1 26900U 01039A   25125.29628258 -.00000288  00000+0  00000+0 0  9994
2 26900   5.0855  76.7567 0004440 324.3666 238.8600  1.00270013 86603
INTELSAT 904 (IS-904)   
1 27380U 02007A   25130.16143194 -.00000203  00000+0  00000+0 0  9993
2 27380   5.9109  74.0028 0003080 331.8244 210.9999  1.00272538 47720
DIRECTV 5 (TEMPO 1)     
1 27426U 02023A   25130.57453015 -.00000043  00000+0  00000+0 0  9995
2 27426   3.8478  80.3473 0003561 337.1477 267.8346  1.00272309 84085
INTELSAT 905 (IS-905)   
1 27438U 02027A   25129.92598914  .00000109  00000+0  00000+0 0  9999
2 27438   5.7389  74.6443 0003849 344.7869   4.8582  1.00226068 47318
GALAXY 3C (G-3C)        
1 27445U 02030A   25130.57681744 -.00000139  00000+0  00000+0 0  9992
2 27445   2.6935  83.0803 0003073  41.8370 216.5149  1.00272134 42450
INTELSAT 906 (IS-906)   
1 27513U 02041A   25130.46555050  .00000026  00000+0  00000+0 0  9992
2 27513   4.7787  77.8852 0003371 348.6481  33.7271  1.00272336 82993
GALAXY 23 (G-23)        
1 27854U 03034A   25130.57169149  .00000025  00000+0  00000+0 0  9994
2 27854   2.1567  84.6881 0002679 330.0421 258.8133  1.00271216 79704
GALAXY 13 (HORIZONS-1)  
1 27954U 03044A   25130.54938216  .00000145  00000+0  00000+0 0  9995
2 27954   0.3771  90.2119 0002015 312.5123 233.6506  1.00270148 42536
INTELSAT 10-02          
1 28358U 04022A   25130.59540984  .00000001  00000+0  00000+0 0  9998
2 28358   0.0279  62.7681 0001136   4.7125  14.4911  1.00270625 76518
XM-3 (RHYTHM)           
1 28626U 05008A   25130.50714267 -.00000187  00000+0  00000+0 0  9995
2 28626   0.0098 307.7212 0001350 239.0258 138.0298  1.00272692 38587
DIRECTV 8               
1 28659U 05019A   25130.56914116  .00000013  00000+0  00000+0 0  9991
2 28659   0.0178 294.0476 0003241 125.8455 254.5613  1.00270374 73033
GALAXY 28 (G-28)        
1 28702U 05022A   25130.57803376 -.00000174  00000+0  00000+0 0  9999
2 28702   2.2613  83.9445 0001194 324.7964 299.2737  1.00271765 47940
GALAXY 16 (G-16)        
1 29236U 06023A   25130.43323098 -.00000115  00000+0  00000+0 0  9992
2 29236   0.0141 136.3416 0002850 272.0356 237.0519  1.00270399 68938
DIRECTV 9S              
1 29494U 06043A   25130.57560111 -.00000101  00000+0  00000+0 0  9999
2 29494   1.3811  85.8161 0003241 330.5926 278.2440  1.00272504 47347
GALAXY 17 (G-17)        
1 31307U 07016B   25130.57881569 -.00000193  00000+0  00000+0 0  9990
2 31307   1.9528  85.0465 0000889  41.9517 224.9984  1.00271763 65760
DIRECTV 10              
1 31862U 07032A   25130.57525359 -.00000091  00000+0  00000+0 0  9993
2 31862   0.0048   9.0452 0000201  18.5802 305.2970  1.00272029 41555
INTELSAT 11 (IS-11)     
1 32253U 07044B   25130.54345867 -.00000046  00000+0  00000+0 0  9992
2 32253   2.5165  83.6497 0001099  24.6862  52.8887  0.99045287 64462
HORIZONS-2              
1 32388U 07063B   25130.53933806 -.00000241  00000+0  00000+0 0  9994
2 32388   1.5626  85.6429 0002128 328.4807 294.8367  1.00271952 63774
DIRECTV 11              
1 32729U 08013A   25130.58116491 -.00000114  00000+0  00000+0 0  9996
2 32729   0.0040  26.9958 0000292 308.4372   3.2235  1.00271564 41554
GALAXY 18 (G-18)        
1 32951U 08024A   25130.57125709  .00000037  00000+0  00000+0 0  9999
2 32951   0.0056 348.3760 0003480  74.4706 248.4240  1.00273474 41813
INTELSAT 25 (IS-25)     
1 33153U 08034A   25130.37518394 -.00000212  00000+0  00000+0 0  9995
2 33153   1.6690  85.3083 0003130 323.4822 283.2000  1.00272310 61656
GALAXY 19 (G-19)        
1 33376U 08045A   25130.58354144 -.00000127  00000+0  00000+0 0  9993
2 33376   0.0046  22.2761 0002867  26.9850 292.4454  1.00272402 60865
FM-5                    
1 35493U 09034A   25130.59280958 -.00000188  00000+0  00000+0 0  9993
2 35493   0.0158 278.5032 0000647 306.3399 131.0536  1.00272120 42603
INTELSAT 14 (IS-14)     
1 36097U 09064A   25130.52266963 -.00000261  00000+0  00000+0 0  9992
2 36097   0.0129 300.8316 0002553 106.6311 324.2805  1.00272080 56569
INTELSAT 15 (IS-15)     
1 36106U 09067A   25130.54111289 -.00000174  00000+0  00000+0 0  9991
2 36106   0.0083 311.3367 0002369  99.9825  97.2171  1.00272468 37192
DIRECTV 12              
1 36131U 09075A   25130.57525359 -.00000092  00000+0  00000+0 0  9997
2 36131   0.0031  42.6760 0000443 354.0872 296.2337  1.00272129 42513
INTELSAT 16 (IS-16)     
1 36397U 10006A   25130.47651817 -.00000233  00000+0  00000+0 0  9992
2 36397   0.0450  80.3052 0002375 357.6629 245.9019  1.00272739 55610
XM-5                    
1 37185U 10053A   25130.43001641 -.00000011  00000+0  00000+0 0  9994
2 37185   0.0300 278.2639 0002832 271.1678  78.6519  1.00265848 53449
INTELSAT 17 (IS-17)     
1 37238U 10065B   25130.53737705  .00000010  00000+0  00000+0 0  9992
2 37238   0.0072 273.1033 0002671 151.3793  63.5543  1.00271553 49214
INTELSAT 28 (IS-28)     
1 37392U 11016A   25130.51711448 -.00000212  00000+0  00000+0 0  9999
2 37392   0.7648  87.8712 0004580 322.6921 332.4699  1.00271395 49249
INTELSAT 18 (IS-18)     
1 37834U 11056A   25130.55998343  .00000065  00000+0  00000+0 0  9994
2 37834   0.0171 282.9496 0001962 123.4165 203.8454  1.00271925 49776
INTELSAT 22 (IS-22)     
1 38098U 12011A   25130.53859337 -.00000047  00000+0  00000+0 0  9997
2 38098   0.0123 116.2374 0001699 292.9790  85.3737  1.00272106  3154
INTELSAT 19 (IS-19)     
1 38356U 12030A   25130.57405934 -.00000045  00000+0  00000+0 0  9997
2 38356   0.0148 320.2940 0003240  94.6130 186.3773  1.00271523 46402
INTELSAT 20 (IS-20)     
1 38740U 12043A   25130.53781145 -.00000013  00000+0  00000+0 0  9990
2 38740   0.0164 164.4150 0002177  21.2143 305.0690  1.00271411 46714
INTELSAT 21 (IS-21)     
1 38749U 12045A   25130.52822733 -.00000273  00000+0  00000+0 0  9997
2 38749   0.0116 321.1845 0002082  99.5586 300.0037  1.00272361 46486
INTELSAT 23 (IS-23)     
1 38867U 12057A   25130.44235344 -.00000273  00000+0  00000+0 0  9998
2 38867   0.0158 196.3869 0001222 295.0613 203.2764  1.00270993 45917
FM-6                    
1 39360U 13058A   25130.57085617 -.00000005  00000+0  00000+0 0  9992
2 39360   0.0163 301.6975 0000881 205.9259 170.3545  1.00270338 42020
INTELSAT 30 (IS-30)     
1 40271U 14062A   25130.38913995 -.00000139  00000+0  00000+0 0  9997
2 40271   0.0310  40.9574 0000944  11.4692 221.0472  1.00272278  2749
DIRECTV 14              
1 40333U 14078B   25130.58116569 -.00000113  00000+0  00000+0 0  9999
2 40333   0.0211 307.8968 0000143 216.7146 174.0255  1.00271434 38002
DIRECTV 15              
1 40663U 15026A   25130.57859147 -.00000090  00000+0  00000+0 0  9998
2 40663   0.0225  71.2289 0000490  84.6048 178.2088  1.00270036 36420
SKY MEXICO-1            
1 40664U 15026B   25130.47340363 -.00000223  00000+0  00000+0 0  9991
2 40664   0.0381  29.6884 0002838  42.3964 248.0969  1.00271970 36419
INTELSAT 34 (IS-34)     
1 40874U 15039A   25130.44183215 -.00000274  00000+0  00000+0 0  9992
2 40874   0.0172 285.0638 0000635  38.9466   8.0449  1.00273201 35589
INTELSAT 31 (IS-31)     
1 41581U 16035A   25130.38914019 -.00000139  00000+0  00000+0 0  9992
2 41581   0.0149 268.3025 0001994 324.2505  40.9152  1.00272519 32648
INTELSAT 36 (IS-36)     
1 41747U 16053A   25130.53781145 -.00000013  00000+0  00000+0 0  9996
2 41747   0.0128 338.6538 0001279 348.0330 164.0043  1.00271263 31916
INTELSAT 32E (IS-32E)   
1 41945U 17007B   25130.44426480 -.00000257  00000+0  00000+0 0  9994
2 41945   0.0064 325.0376 0000595  33.3537 346.8574  1.00274634 30180
INTELSAT 35E (IS-35E)   
1 42818U 17041A   25130.51711448 -.00000226  00000+0  00000+0 0  9997
2 42818   0.0121 286.4811 0002149 128.5882 325.1701  1.00269995 28773
INTELSAT 37E (IS-37E)   
1 42950U 17059A   25130.39628308 -.00000129  00000+0  00000+0 0  9993
2 42950   0.0038 353.7641 0002677  62.7295 296.6028  1.00271647 28028
AZERSPACE 2 (IS-38)     
1 43632U 18074A   25130.53320679  .00000148  00000+0  00000+0 0  9995
2 43632   0.0172 284.8650 0001928 107.5228  73.2558  1.00270593 24416
HORIZONS-3E             
1 43633U 18074B   25130.62215470 -.00000019  00000+0  00000+0 0  9996
2 43633   0.0355 145.9876 0000451 176.7565 298.8938  1.00271076 24301
AT&T T-16               
1 44333U 19034A   25130.47336218 -.00000103  00000+0  00000+0 0  9992
2 44333   0.0149  62.8897 0000431  64.2938 170.8821  1.00269399 21596
INTELSAT 39 (IS-39)     
1 44476U 19049B   25130.59922784  .00000045  00000+0  00000+0 0  9992
2 44476   0.0179 292.0070 0000254  58.8733 155.4266  1.00271676 21090
GALAXY 30 (G-30)        
1 46114U 20056C   25130.54200095  .00000049  00000+0  00000+0 0  9996
2 46114   0.0181 293.8090 0002398 121.9287 242.9540  1.00270009 17251
GALAXY 33 (G-33)        
1 54026U 22128A   25130.56020475  .00000091  00000+0  00000+0 0  9990
2 54026   0.0099 343.3679 0001925  63.4838 250.4393  1.00273045  9705
GALAXY 34 (G-34)        
1 54027U 22128B   25130.57004076  .00000071  00000+0  00000+0 0  9999
2 54027   0.0108 336.8765 0001444  72.1943 255.7647  1.00272106  9875
GALAXY 31 (G-31)        
1 54243U 22153A   25130.56741845  .00000025  00000+0  00000+0 0  9997
2 54243   0.0073 228.5730 0000930 136.6929 306.6150  1.00272265  3093
GALAXY 32 (G-32)        
1 54244U 22153B   25130.57759936 -.00000162  00000+0  00000+0 0  9992
2 54244   0.0158 322.3920 0002784  67.8747 315.2941  1.00272139  9106
GALAXY 35 (G-35)        
1 54741U 22170A   25130.58461091 -.00000150  00000+0  00000+0 0  9993
2 54741   0.0027 188.7625 0002066 221.1344 296.0837  1.00272264  8850
GALAXY 36 (G-36)        
1 54742U 22170B   25130.57794689 -.00000173  00000+0  00000+0 0  9990
2 54742   0.0187 254.5605 0002917 179.5846 273.5428  1.00272389  8737
GALAXY 37 (G-37)        
1 57493U 23112A   25130.56399505  .00000060  00000+0  00000+0 0  9994
2 57493   0.0119 305.1939 0002006 102.4948 256.9625  1.00271894  6505
